ONEWEB-0389             
1 50469U 21132A   26130.15470306 -.00000012  00000+0 -62978-4 0  9991
2 50469  87.9171  13.4287 0001968  92.3114 267.8243 13.17649719213071
ONEWEB-0390             
1 50470U 21132B   26130.15638509  .00000027  00000+0  35639-4 0  9992
2 50470  87.9172  13.4291 0001597  83.1547 276.9766 13.17649001213070
ONEWEB-0391             
1 50471U 21132C   26130.15807507  .00000016  00000+0  83834-5 0  9998
2 50471  87.9171  13.4381 0001872 108.1768 251.9568 13.17649985213073
ONEWEB-0392             
1 50472U 21132D   26130.18844709  .00000062  00000+0  12545-3 0  9997
2 50472  87.9178  13.3975 0001937  94.1783 265.9570 13.17647815213115
ONEWEB-0393             
1 50473U 21132E   26130.16396608  .00000038  00000+0  65637-4 0  9990
2 50473  87.9172  13.4224 0001867  86.8697 273.2648 13.17647767213105
ONEWEB-0394             
1 50474U 21132F   26130.08399900  .00000038  00000+0  62983-4 0  9991
2 50474  87.9186 343.0233 0001991  91.7721 268.3639 13.18686734216571
ONEWEB-0395             
1 50475U 21132G   26130.17123926  .00000506  00000+0  13919-2 0  9998
2 50475  87.8915  28.6296 0001675  86.0748 274.0571 13.11413579210730
ONEWEB-0396             
1 50476U 21132H   26130.15312786  .00000069  00000+0  14190-3 0  9998
2 50476  87.9185 343.0218 0001950  89.3006 270.8349 13.18687210216621
ONEWEB-0397             
1 50477U 21132J   26130.09242964  .00000079  00000+0  16722-3 0  9996
2 50477  87.9185 343.0341 0002051  87.3629 272.7737 13.18686665216592
ONEWEB-0398             
1 50478U 21132K   26130.13902632 -.00000361  00000+0 -10555-2 0  9990
2 50478  87.8928  28.6227 0001529  81.0047 279.1254 13.11418547210628
ONEWEB-0399             
1 50479U 21132L   26130.20174811 -.00000458  00000+0 -13277-2 0  9990
2 50479  87.8929  28.6206 0002169  90.3988 269.7389 13.11418331210620
ONEWEB-0400             
1 50480U 21132M   26130.14637322  .00000119  00000+0  26901-3 0  9997
2 50480  87.9185 343.0130 0001595  86.1483 273.9831 13.18687388216590
ONEWEB-0401             
1 50481U 21132N   26130.11603406  .00000030  00000+0  42486-4 0  9990
2 50481  87.9188 343.0161 0001987  80.7070 279.4287 13.18686800216599
ONEWEB-0402             
1 50482U 21132P   26130.07892557  .00000031  00000+0  46692-4 0  9997
2 50482  87.9185 343.0133 0002251  79.2581 280.8804 13.18685794216616
ONEWEB-0403             
1 50483U 21132Q   26130.10421997  .00000066  00000+0  13429-3 0  9997
2 50483  87.9184 343.0322 0001849  90.1339 270.0005 13.18686075216573
ONEWEB-0404             
1 50484U 21132R   26130.18311419  .00000025  00000+0  35583-4 0  9994
2 50484  87.8917  28.6255 0001856  90.0173 270.1168 13.11414537210717
