[{"OBJECT_NAME":"ONEWEB-0389","OBJECT_ID":"2021-132A","EPOCH":"2026-05-10T03:42:46.344384","MEAN_MOTION":13.17649719,"ECCENTRICITY":0.0001968,"INCLINATION":87.9171,"RA_OF_ASC_NODE":13.4287,"ARG_OF_PERICENTER":92.3114,"MEAN_ANOMALY":267.8243,"EPHEMERIS_TYPE":0,"CLASSIFICATION_TYPE":"U","NORAD_CAT_ID":50469,"ELEMENT_SET_NO":999,"REV_AT_EPOCH":21307,"BSTAR":-6.2978e-05,"MEAN_MOTION_DOT":-1.2e-07,"MEAN_MOTION_DDOT":0.0},{"OBJECT_NAME":"ONEWEB-0390","OBJECT_ID":"2021-132B","EPOCH":"2026-05-10T03:45:11.671776","MEAN_MOTION":13.17649001,"ECCENTRICITY":0.0001597,"INCLINATION":87.9172,"RA_OF_ASC_NODE":13.4291,"ARG_OF_PERICENTER":83.1547,"MEAN_ANOMALY":276.9766,"EPHEMERIS_TYPE":0,"CLASSIFICATION_TYPE":"U","NORAD_CAT_ID":50470,"ELEMENT_SET_NO":999,"REV_AT_EPOCH":21307,"BSTAR":3.5639e-05,"MEAN_MOTION_DOT":2.7e-07,"MEAN_MOTION_DDOT":0.0},{"OBJECT_NAME":"ONEWEB-0391","OBJECT_ID":"2021-132C","EPOCH":"2026-05-10T03:47:37.686048","MEAN_MOTION":13.17649985,"ECCENTRICITY":0.0001872,"INCLINATION":87.9171,"RA_OF_ASC_NODE":13.4381,"ARG_OF_PERICENTER":108.1768,"MEAN_ANOMALY":251.9568,"EPHEMERIS_TYPE":0,"CLASSIFICATION_TYPE":"U","NORAD_CAT_ID":50471,"ELEMENT_SET_NO":999,"REV_AT_EPOCH":21307,"BSTAR":8.3834e-06,"MEAN_MOTION_DOT":1.6e-07,"MEAN_MOTION_DDOT":0.0},{"OBJECT_NAME":"ONEWEB-0392","OBJECT_ID":"2021-132D","EPOCH":"2026-05-10T04:31:21.828576","MEAN_MOTION":13.17647815,"ECCENTRICITY":0.0001937,"INCLINATION":87.9178,"RA_OF_ASC_NODE":13.3975,"ARG_OF_PERICENTER":94.1783,"MEAN_ANOMALY":265.957,"EPHEMERIS_TYPE":0,"CLASSIFICATION_TYPE":"U","NORAD_CAT_ID":50472,"ELEMENT_SET_NO":999,"REV_AT_EPOCH":21311,"BSTAR":0.00012545,"MEAN_MOTION_DOT":6.2e-07,"MEAN_MOTION_DDOT":0.0},{"OBJECT_NAME":"ONEWEB-0393","OBJECT_ID":"2021-132E","EPOCH":"2026-05-10T03:56:06.669312","MEAN_MOTION":13.17647767,"ECCENTRICITY":0.0001867,"INCLINATION":87.9172,"RA_OF_ASC_NODE":13.4224,"ARG_OF_PERICENTER":86.8697,"MEAN_ANOMALY":273.2648,"EPHEMERIS_TYPE":0,"CLASSIFICATION_TYPE":"U","NORAD_CAT_ID":50473,"ELEMENT_SET_NO":999,"REV_AT_EPOCH":21310,"BSTAR":6.563700000000001e-05,"MEAN_MOTION_DOT":3.8e-07,"MEAN_MOTION_DDOT":0.0},{"OBJECT_NAME":"ONEWEB-0394","OBJECT_ID":"2021-132F","EPOCH":"2026-05-10T02:00:57.513600","MEAN_MOTION":13.18686734,"ECCENTRICITY":0.0001991,"INCLINATION":87.9186,"RA_OF_ASC_NODE":343.0233,"ARG_OF_PERICENTER":91.7721,"MEAN_ANOMALY":268.3639,"EPHEMERIS_TYPE":0,"CLASSIFICATION_TYPE":"U","NORAD_CAT_ID":50474,"ELEMENT_SET_NO":999,"REV_AT_EPOCH":21657,"BSTAR":6.2983e-05,"MEAN_MOTION_DOT":3.8e-07,"MEAN_MOTION_DDOT":0.0},{"OBJECT_NAME":"ONEWEB-0395","OBJECT_ID":"2021-132G","EPOCH":"2026-05-10T04:06:35.072064","MEAN_MOTION":13.11413579,"ECCENTRICITY":0.0001675,"INCLINATION":87.8915,"RA_OF_ASC_NODE":28.6296,"ARG_OF_PERICENTER":86.0748,"MEAN_ANOMALY":274.0571,"EPHEMERIS_TYPE":0,"CLASSIFICATION_TYPE":"U","NORAD_CAT_ID":50475,"ELEMENT_SET_NO":999,"REV_AT_EPOCH":21073,"BSTAR":0.0013919000000000002,"MEAN_MOTION_DOT":5.06e-06,"MEAN_MOTION_DDOT":0.0},{"OBJECT_NAME":"ONEWEB-0396","OBJECT_ID":"2021-132H","EPOCH":"2026-05-10T03:40:30.247104","MEAN_MOTION":13.1868721,"ECCENTRICITY":0.000195,"INCLINATION":87.9185,"RA_OF_ASC_NODE":343.0218,"ARG_OF_PERICENTER":89.3006,"MEAN_ANOMALY":270.8349,"EPHEMERIS_TYPE":0,"CLASSIFICATION_TYPE":"U","NORAD_CAT_ID":50476,"ELEMENT_SET_NO":999,"REV_AT_EPOCH":21662,"BSTAR":0.0001419,"MEAN_MOTION_DOT":6.9e-07,"MEAN_MOTION_DDOT":0.0},{"OBJECT_NAME":"ONEWEB-0397","OBJECT_ID":"2021-132J","EPOCH":"2026-05-10T02:13:05.920896","MEAN_MOTION":13.18686665,"ECCENTRICITY":0.0002051,"INCLINATION":87.9185,"RA_OF_ASC_NODE":343.0341,"ARG_OF_PERICENTER":87.3629,"MEAN_ANOMALY":272.7737,"EPHEMERIS_TYPE":0,"CLASSIFICATION_TYPE":"U","NORAD_CAT_ID":50477,"ELEMENT_SET_NO":999,"REV_AT_EPOCH":21659,"BSTAR":0.00016722000000000002,"MEAN_MOTION_DOT":7.9e-07,"MEAN_MOTION_DDOT":0.0},{"OBJECT_NAME":"ONEWEB-0398","OBJECT_ID":"2021-132K","EPOCH":"2026-05-10T03:20:11.874048","MEAN_MOTION":13.11418547,"ECCENTRICITY":0.0001529,"INCLINATION":87.8928,"RA_OF_ASC_NODE":28.6227,"ARG_OF_PERICENTER":81.0047,"MEAN_ANOMALY":279.1254,"EPHEMERIS_TYPE":0,"CLASSIFICATION_TYPE":"U","NORAD_CAT_ID":50478,"ELEMENT_SET_NO":999,"REV_AT_EPOCH":21062,"BSTAR":-0.0010555,"MEAN_MOTION_DOT":-3.61e-06,"MEAN_MOTION_DDOT":0.0},{"OBJECT_NAME":"ONEWEB-0399","OBJECT_ID":"2021-132L","EPOCH":"2026-05-10T04:50:31.036704","MEAN_MOTION":13.11418331,"ECCENTRICITY":0.0002169,"INCLINATION":87.8929,"RA_OF_ASC_NODE":28.6206,"ARG_OF_PERICENTER":90.3988,"MEAN_ANOMALY":269.7389,"EPHEMERIS_TYPE":0,"CLASSIFICATION_TYPE":"U","NORAD_CAT_ID":50479,"ELEMENT_SET_NO":999,"REV_AT_EPOCH":21062,"BSTAR":-0.0013277,"MEAN_MOTION_DOT":-4.58e-06,"MEAN_MOTION_DDOT":0.0},{"OBJECT_NAME":"ONEWEB-0400","OBJECT_ID":"2021-132M","EPOCH":"2026-05-10T03:30:46.646208","MEAN_MOTION":13.18687388,"ECCENTRICITY":0.0001595,"INCLINATION":87.9185,"RA_OF_ASC_NODE":343.013,"ARG_OF_PERICENTER":86.1483,"MEAN_ANOMALY":273.9831,"EPHEMERIS_TYPE":0,"CLASSIFICATION_TYPE":"U","NORAD_CAT_ID":50480,"ELEMENT_SET_NO":999,"REV_AT_EPOCH":21659,"BSTAR":0.00026901000000000003,"MEAN_MOTION_DOT":1.19e-06,"MEAN_MOTION_DDOT":0.0},{"OBJECT_NAME":"ONEWEB-0401","OBJECT_ID":"2021-132N","EPOCH":"2026-05-10T02:47:05.342784","MEAN_MOTION":13.186868,"ECCENTRICITY":0.0001987,"INCLINATION":87.9188,"RA_OF_ASC_NODE":343.0161,"ARG_OF_PERICENTER":80.707,"MEAN_ANOMALY":279.4287,"EPHEMERIS_TYPE":0,"CLASSIFICATION_TYPE":"U","NORAD_CAT_ID":50481,"ELEMENT_SET_NO":999,"REV_AT_EPOCH":21659,"BSTAR":4.2486000000000006e-05,"MEAN_MOTION_DOT":3e-07,"MEAN_MOTION_DDOT":0.0},{"OBJECT_NAME":"ONEWEB-0402","OBJECT_ID":"2021-132P","EPOCH":"2026-05-10T01:53:39.169248","MEAN_MOTION":13.18685794,"ECCENTRICITY":0.0002251,"INCLINATION":87.9185,"RA_OF_ASC_NODE":343.0133,"ARG_OF_PERICENTER":79.2581,"MEAN_ANOMALY":280.8804,"EPHEMERIS_TYPE":0,"CLASSIFICATION_TYPE":"U","NORAD_CAT_ID":50482,"ELEMENT_SET_NO":999,"REV_AT_EPOCH":21661,"BSTAR":4.6692e-05,"MEAN_MOTION_DOT":3.1e-07,"MEAN_MOTION_DDOT":0.0},{"OBJECT_NAME":"ONEWEB-0403","OBJECT_ID":"2021-132Q","EPOCH":"2026-05-10T02:30:04.605408","MEAN_MOTION":13.18686075,"ECCENTRICITY":0.0001849,"INCLINATION":87.9184,"RA_OF_ASC_NODE":343.0322,"ARG_OF_PERICENTER":90.1339,"MEAN_ANOMALY":270.0005,"EPHEMERIS_TYPE":0,"CLASSIFICATION_TYPE":"U","NORAD_CAT_ID":50483,"ELEMENT_SET_NO":999,"REV_AT_EPOCH":21657,"BSTAR":0.00013429,"MEAN_MOTION_DOT":6.6e-07,"MEAN_MOTION_DDOT":0.0},{"OBJECT_NAME":"ONEWEB-0404","OBJECT_ID":"2021-132R","EPOCH":"2026-05-10T04:23:41.066016","MEAN_MOTION":13.11414537,"ECCENTRICITY":0.0001856,"INCLINATION":87.8917,"RA_OF_ASC_NODE":28.6255,"ARG_OF_PERICENTER":90.0173,"MEAN_ANOMALY":270.1168,"EPHEMERIS_TYPE":0,"CLASSIFICATION_TYPE":"U","NORAD_CAT_ID":50484,"ELEMENT_SET_NO":999,"REV_AT_EPOCH":21071,"BSTAR":3.5583e-05,"MEAN_MOTION_DOT":2.5e-07,"MEAN_MOTION_DDOT":0.0}]